Address,City,State,Zip,links
14 W 65th St,Chicago,IL,60621,"https://www.zillow.com/homes/14-W-65th-St,Chicago-IL-60621_rb"
125 E 117th Pl,Chicago,IL,60628,"https://www.zillow.com/homes/125-E-117th-Pl,Chicago-IL-60628_rb"
6601 S Carpenter St,Chicago,IL,60621,"https://www.zillow.com/homes/6601-S-Carpenter-St,Chicago-IL-60621_rb"
6353 S Wolcott Ave,Chicago,IL,60636,"https://www.zillow.com/homes/6353-S-Wolcott-Ave,Chicago-IL-60636_rb"
6428 S Rhodes Ave,Chicago,IL,60637,"https://www.zillow.com/homes/6428-S-Rhodes-Ave,Chicago-IL-60637_rb"
11808 S Wallace St,Chicago,IL,60628,"https://www.zillow.com/homes/11808-S-Wallace-St,Chicago-IL-60628_rb"
12023 S Parnell Ave #1,Chicago,IL,60628,"https://www.zillow.com/homes/12023-S-Parnell-Ave-#1,Chicago-IL-60628_rb"
14610 Justine St,Harvey,IL,60426,"https://www.zillow.com/homes/14610-Justine-St,Harvey-IL-60426_rb"
3050 E 93rd St,Chicago,IL,60617,"https://www.zillow.com/homes/3050-E-93rd-St,Chicago-IL-60617_rb"
8320 S Buffalo Ave,Chicago,IL,60617,"https://www.zillow.com/homes/8320-S-Buffalo-Ave,Chicago-IL-60617_rb"
510 Garfield Ave,Calumet City,IL,60409,"https://www.zillow.com/homes/510-Garfield-Ave,Calumet-City-IL-60409_rb"
2 E 114th Pl,Chicago,IL,60628,"https://www.zillow.com/homes/2-E-114th-Pl,Chicago-IL-60628_rb"
1500 Lowe Ave,Chicago Heights,IL,60411,"https://www.zillow.com/homes/1500-Lowe-Ave,Chicago-Heights-IL-60411_rb"
1730 E 158th St #B,South Holland,IL,60473,"https://www.zillow.com/homes/1730-E-158th-St-#B,South-Holland-IL-60473_rb"
639 E 142nd St,Dolton,IL,60419,"https://www.zillow.com/homes/639-E-142nd-St,Dolton-IL-60419_rb"
14620 Jefferson St,Harvey,IL,60426,"https://www.zillow.com/homes/14620-Jefferson-St,Harvey-IL-60426_rb"
810 Sibley Blvd #2,Calumet City,IL,60409,"https://www.zillow.com/homes/810-Sibley-Blvd-#2,Calumet-City-IL-60409_rb"
28 E 120th Pl,Chicago,IL,60628,"https://www.zillow.com/homes/28-E-120th-Pl,Chicago-IL-60628_rb"
3052 E 79th Pl,Chicago,IL,60617,"https://www.zillow.com/homes/3052-E-79th-Pl,Chicago-IL-60617_rb"
638 E 92nd Pl #1,Chicago,IL,60619,"https://www.zillow.com/homes/638-E-92nd-Pl-#1,Chicago-IL-60619_rb"
2724 N Mobile Ave,Chicago,IL,60639,"https://www.zillow.com/homes/2724-N-Mobile-Ave,Chicago-IL-60639_rb"
9345 S University Ave #1,Chicago,IL,60619,"https://www.zillow.com/homes/9345-S-University-Ave-#1,Chicago-IL-60619_rb"
6329 S Evans Ave,Chicago,IL,60637,"https://www.zillow.com/homes/6329-S-Evans-Ave,Chicago-IL-60637_rb"
1828 N Keeler Ave,Chicago,IL,60639,"https://www.zillow.com/homes/1828-N-Keeler-Ave,Chicago-IL-60639_rb"
400 Pulaski Rd,Calumet City,IL,60409,"https://www.zillow.com/homes/400-Pulaski-Rd,Calumet-City-IL-60409_rb"
7810 S Drexel Ave,Chicago,IL,60619,"https://www.zillow.com/homes/7810-S-Drexel-Ave,Chicago-IL-60619_rb"
3234 W 139th St,Robbins,IL,60472,"https://www.zillow.com/homes/3234-W-139th-St,Robbins-IL-60472_rb"
3230 W 139th St,Robbins,IL,60472,"https://www.zillow.com/homes/3230-W-139th-St,Robbins-IL-60472_rb"
5050 W 29th Pl,Cicero,IL,60804,"https://www.zillow.com/homes/5050-W-29th-Pl,Cicero-IL-60804_rb"
7614 S Normal Ave,Chicago,IL,60620,"https://www.zillow.com/homes/7614-S-Normal-Ave,Chicago-IL-60620_rb"
5627 S Perry Ave #1,Chicago,IL,60621,"https://www.zillow.com/homes/5627-S-Perry-Ave-#1,Chicago-IL-60621_rb"
423 Jefferson St,Dolton,IL,60419,"https://www.zillow.com/homes/423-Jefferson-St,Dolton-IL-60419_rb"
134 W 118th St,Chicago,IL,60628,"https://www.zillow.com/homes/134-W-118th-St,Chicago-IL-60628_rb"
15705 Tulip,Harvey,IL,60426,"https://www.zillow.com/homes/15705-Tulip,Harvey-IL-60426_rb"
179 E 147th St,Harvey,IL,60426,"https://www.zillow.com/homes/179-E-147th-St,Harvey-IL-60426_rb"
191 E 147th St,Harvey,IL,60426,"https://www.zillow.com/homes/191-E-147th-St,Harvey-IL-60426_rb"
13832 Park Ave,Dolton,IL,60419,"https://www.zillow.com/homes/13832-Park-Ave,Dolton-IL-60419_rb"
8040 S South Shore Dr,Chicago,IL,60617,"https://www.zillow.com/homes/8040-S-South-Shore-Dr,Chicago-IL-60617_rb"
4248 W Armitage Ave,Chicago,IL,60639,"https://www.zillow.com/homes/4248-W-Armitage-Ave,Chicago-IL-60639_rb"
15616 Center Ave,Harvey,IL,60426,"https://www.zillow.com/homes/15616-Center-Ave,Harvey-IL-60426_rb"
8854 S Escanaba Ave,Chicago,IL,60617,"https://www.zillow.com/homes/8854-S-Escanaba-Ave,Chicago-IL-60617_rb"
815 N 12th Ave #1,Melrose Park,IL,60160,"https://www.zillow.com/homes/815-N-12th-Ave-#1,Melrose-Park-IL-60160_rb"
9422 S Commercial Ave,Chicago,IL,60617,"https://www.zillow.com/homes/9422-S-Commercial-Ave,Chicago-IL-60617_rb"
8224 S Houston Ave,Chicago,IL,60617,"https://www.zillow.com/homes/8224-S-Houston-Ave,Chicago-IL-60617_rb"
8339 S Colfax Ave,Chicago,IL,60617,"https://www.zillow.com/homes/8339-S-Colfax-Ave,Chicago-IL-60617_rb"
206 Stephen St,Lemont,IL,60439,"https://www.zillow.com/homes/206-Stephen-St,Lemont-IL-60439_rb"
1925 Darrow Ave,Evanston,IL,60201,"https://www.zillow.com/homes/1925-Darrow-Ave,Evanston-IL-60201_rb"
7819 S Union Ave,Chicago,IL,60620,"https://www.zillow.com/homes/7819-S-Union-Ave,Chicago-IL-60620_rb"
15710 Finch Ave,Harvey,IL,60426,"https://www.zillow.com/homes/15710-Finch-Ave,Harvey-IL-60426_rb"
8340 S Buffalo Ave,Chicago,IL,60617,"https://www.zillow.com/homes/8340-S-Buffalo-Ave,Chicago-IL-60617_rb"
8847 S Burley Ave,Chicago,IL,60617,"https://www.zillow.com/homes/8847-S-Burley-Ave,Chicago-IL-60617_rb"
737 W 60th Pl #1,Chicago,IL,60621,"https://www.zillow.com/homes/737-W-60th-Pl-#1,Chicago-IL-60621_rb"
13902 Park Ave,Dolton,IL,60419,"https://www.zillow.com/homes/13902-Park-Ave,Dolton-IL-60419_rb"
1519 E 76th St,Chicago,IL,60619,"https://www.zillow.com/homes/1519-E-76th-St,Chicago-IL-60619_rb"
7724 S Greenwood Ave #2,Chicago,IL,60619,"https://www.zillow.com/homes/7724-S-Greenwood-Ave-#2,Chicago-IL-60619_rb"
7531 S Ingleside Ave,Chicago,IL,60619,"https://www.zillow.com/homes/7531-S-Ingleside-Ave,Chicago-IL-60619_rb"
5438 S Justine St,Chicago,IL,60609,"https://www.zillow.com/homes/5438-S-Justine-St,Chicago-IL-60609_rb"
7647 S Dante Ave,Chicago,IL,60619,"https://www.zillow.com/homes/7647-S-Dante-Ave,Chicago-IL-60619_rb"
8704 S Baltimore Ave,Chicago,IL,60617,"https://www.zillow.com/homes/8704-S-Baltimore-Ave,Chicago-IL-60617_rb"
7822 S Escanaba Ave,Chicago,IL,60649,"https://www.zillow.com/homes/7822-S-Escanaba-Ave,Chicago-IL-60649_rb"
8810 S Commercial Ave,Chicago,IL,60617,"https://www.zillow.com/homes/8810-S-Commercial-Ave,Chicago-IL-60617_rb"
8726 S Racine Ave,Chicago,IL,60620,"https://www.zillow.com/homes/8726-S-Racine-Ave,Chicago-IL-60620_rb"
8505 S Maryland Ave #1,Chicago,IL,60619,"https://www.zillow.com/homes/8505-S-Maryland-Ave-#1,Chicago-IL-60619_rb"
7346 S Peoria St,Chicago,IL,60621,"https://www.zillow.com/homes/7346-S-Peoria-St,Chicago-IL-60621_rb"
7909 S Muskegon Ave,Chicago,IL,60617,"https://www.zillow.com/homes/7909-S-Muskegon-Ave,Chicago-IL-60617_rb"
4205 W 21st Pl #2,Chicago,IL,60623,"https://www.zillow.com/homes/4205-W-21st-Pl-#2,Chicago-IL-60623_rb"
3429 W 38th St,Chicago,IL,60632,"https://www.zillow.com/homes/3429-W-38th-St,Chicago-IL-60632_rb"
7921 S Loomis Blvd #1,Chicago,IL,60620,"https://www.zillow.com/homes/7921-S-Loomis-Blvd-#1,Chicago-IL-60620_rb"
323 S Mozart St,Chicago,IL,60612,"https://www.zillow.com/homes/323-S-Mozart-St,Chicago-IL-60612_rb"
3935 N Nordica Ave #1,Chicago,IL,60634,"https://www.zillow.com/homes/3935-N-Nordica-Ave-#1,Chicago-IL-60634_rb"
5002 W Gunnison St,Chicago,IL,60630,"https://www.zillow.com/homes/5002-W-Gunnison-St,Chicago-IL-60630_rb"
1829 N Francisco Ave,Chicago,IL,60647,"https://www.zillow.com/homes/1829-N-Francisco-Ave,Chicago-IL-60647_rb"
2304 N Maplewood Ave,Chicago,IL,60647,"https://www.zillow.com/homes/2304-N-Maplewood-Ave,Chicago-IL-60647_rb"
6135 W Ogden Ave,Cicero,IL,60804,"https://www.zillow.com/homes/6135-W-Ogden-Ave,Cicero-IL-60804_rb"
6131 W Ogden Ave #37,Cicero,IL,60804,"https://www.zillow.com/homes/6131-W-Ogden-Ave-#37,Cicero-IL-60804_rb"
4240 W Armitage Ave,Chicago,IL,60639,"https://www.zillow.com/homes/4240-W-Armitage-Ave,Chicago-IL-60639_rb"
140 155th Pl,Calumet City,IL,60409,"https://www.zillow.com/homes/140-155th-Pl,Calumet-City-IL-60409_rb"
10357 S Avenue M,Chicago,IL,60617,"https://www.zillow.com/homes/10357-S-Avenue-M,Chicago-IL-60617_rb"
1001 E Lincoln Hwy,Ford Heights,IL,60411,"https://www.zillow.com/homes/1001-E-Lincoln-Hwy,Ford-Heights-IL-60411_rb"
3606 Salem Walk,Northbrook,IL,60062,"https://www.zillow.com/homes/3606-Salem-Walk,Northbrook-IL-60062_rb"
114 E 25th St,Chicago Heights,IL,60411,"https://www.zillow.com/homes/114-E-25th-St,Chicago-Heights-IL-60411_rb"
14730 Page Ave,Harvey,IL,60426,"https://www.zillow.com/homes/14730-Page-Ave,Harvey-IL-60426_rb"
6840 S Dorchester Ave,Chicago,IL,60637,"https://www.zillow.com/homes/6840-S-Dorchester-Ave,Chicago-IL-60637_rb"
8700 S Marquette Ave,Chicago,IL,60617,"https://www.zillow.com/homes/8700-S-Marquette-Ave,Chicago-IL-60617_rb"
15601 Greenwood Rd #1,Dolton,IL,60419,"https://www.zillow.com/homes/15601-Greenwood-Rd-#1,Dolton-IL-60419_rb"
3300 S Oakley Ave,Chicago,IL,60608,"https://www.zillow.com/homes/3300-S-Oakley-Ave,Chicago-IL-60608_rb"
3165 W Monroe St,Chicago,IL,60612,"https://www.zillow.com/homes/3165-W-Monroe-St,Chicago-IL-60612_rb"
3634 N Whipple St,Chicago,IL,60618,"https://www.zillow.com/homes/3634-N-Whipple-St,Chicago-IL-60618_rb"
7415 S Langley Ave #1,Chicago,IL,60619,"https://www.zillow.com/homes/7415-S-Langley-Ave-#1,Chicago-IL-60619_rb"
7224 S Emerald Ave,Chicago,IL,60621,"https://www.zillow.com/homes/7224-S-Emerald-Ave,Chicago-IL-60621_rb"
6223 S Saint Lawrence Ave,Chicago,IL,60637,"https://www.zillow.com/homes/6223-S-Saint-Lawrence-Ave,Chicago-IL-60637_rb"
14143 S Tracy Ave,Riverdale,IL,60827,"https://www.zillow.com/homes/14143-S-Tracy-Ave,Riverdale-IL-60827_rb"
7818 S Jeffery Blvd,Chicago,IL,60649,"https://www.zillow.com/homes/7818-S-Jeffery-Blvd,Chicago-IL-60649_rb"
3610 W Wrightwood Ave,Chicago,IL,60647,"https://www.zillow.com/homes/3610-W-Wrightwood-Ave,Chicago-IL-60647_rb"
10400 S Claremont Ave #2,Chicago,IL,60643,"https://www.zillow.com/homes/10400-S-Claremont-Ave-#2,Chicago-IL-60643_rb"
1440 Lowe Ave,Chicago Heights,IL,60411,"https://www.zillow.com/homes/1440-Lowe-Ave,Chicago-Heights-IL-60411_rb"
14141 S Tracy Ave,Riverdale,IL,60827,"https://www.zillow.com/homes/14141-S-Tracy-Ave,Riverdale-IL-60827_rb"
14538 Loomis Ave #1,Harvey,IL,60426,"https://www.zillow.com/homes/14538-Loomis-Ave-#1,Harvey-IL-60426_rb"
339 Crandon Ave,Calumet City,IL,60409,"https://www.zillow.com/homes/339-Crandon-Ave,Calumet-City-IL-60409_rb"
6539 North Ave,Oak Park,IL,60302,"https://www.zillow.com/homes/6539-North-Ave,Oak-Park-IL-60302_rb"
371 Luella Ave,Calumet City,IL,60409,"https://www.zillow.com/homes/371-Luella-Ave,Calumet-City-IL-60409_rb"
5053 N Lincoln Ave,Chicago,IL,60625,"https://www.zillow.com/homes/5053-N-Lincoln-Ave,Chicago-IL-60625_rb"
7029 S Eggleston Ave,Chicago,IL,60621,"https://www.zillow.com/homes/7029-S-Eggleston-Ave,Chicago-IL-60621_rb"
7953 S Escanaba Ave,Chicago,IL,60617,"https://www.zillow.com/homes/7953-S-Escanaba-Ave,Chicago-IL-60617_rb"
7226 S King Dr,Chicago,IL,60619,"https://www.zillow.com/homes/7226-S-King-Dr,Chicago-IL-60619_rb"
7728 S Green St #1,Chicago,IL,60620,"https://www.zillow.com/homes/7728-S-Green-St-#1,Chicago-IL-60620_rb"
3236 W 139th St,Robbins,IL,60472,"https://www.zillow.com/homes/3236-W-139th-St,Robbins-IL-60472_rb"
1924 Kenilworth Ave,Berwyn,IL,60402,"https://www.zillow.com/homes/1924-Kenilworth-Ave,Berwyn-IL-60402_rb"
7141 S University Ave,Chicago,IL,60619,"https://www.zillow.com/homes/7141-S-University-Ave,Chicago-IL-60619_rb"
7122 S Rhodes Ave #1,Chicago,IL,60619,"https://www.zillow.com/homes/7122-S-Rhodes-Ave-#1,Chicago-IL-60619_rb"
8031 Houston,,IL,,"https://www.zillow.com/homes/8031-Houston,-IL-_rb"
626 Ingraham Ave,Calumet City,IL,60409,"https://www.zillow.com/homes/626-Ingraham-Ave,Calumet-City-IL-60409_rb"
8706 S Commercial Ave,Chicago,IL,60617,"https://www.zillow.com/homes/8706-S-Commercial-Ave,Chicago-IL-60617_rb"
6326 S Morgan St,Chicago,IL,60621,"https://www.zillow.com/homes/6326-S-Morgan-St,Chicago-IL-60621_rb"
7600 S Winchester Ave,Chicago,IL,60620,"https://www.zillow.com/homes/7600-S-Winchester-Ave,Chicago-IL-60620_rb"
321 W 151st Pl,Harvey,IL,60426,"https://www.zillow.com/homes/321-W-151st-Pl,Harvey-IL-60426_rb"
4100 W Eddy St #1,Chicago,IL,60641,"https://www.zillow.com/homes/4100-W-Eddy-St-#1,Chicago-IL-60641_rb"
1922 N Kildare Ave,Chicago,IL,60639,"https://www.zillow.com/homes/1922-N-Kildare-Ave,Chicago-IL-60639_rb"
8115 S Burnham Ave,Chicago,IL,60617,"https://www.zillow.com/homes/8115-S-Burnham-Ave,Chicago-IL-60617_rb"
5907 W 103rd St,Oak Lawn,IL,60453,"https://www.zillow.com/homes/5907-W-103rd-St,Oak-Lawn-IL-60453_rb"
554 Gregory Dr,Chicago Heights,IL,60411,"https://www.zillow.com/homes/554-Gregory-Dr,Chicago-Heights-IL-60411_rb"
15355 Dixie Hwy,Harvey,IL,60426,"https://www.zillow.com/homes/15355-Dixie-Hwy,Harvey-IL-60426_rb"
9806 S Ewing Ave,Chicago,IL,60617,"https://www.zillow.com/homes/9806-S-Ewing-Ave,Chicago-IL-60617_rb"
6415 S Langley Ave,Chicago,IL,60637,"https://www.zillow.com/homes/6415-S-Langley-Ave,Chicago-IL-60637_rb"
6934 S Wabash Ave,Chicago,IL,60637,"https://www.zillow.com/homes/6934-S-Wabash-Ave,Chicago-IL-60637_rb"
132 E 155th St,Harvey,IL,60426,"https://www.zillow.com/homes/132-E-155th-St,Harvey-IL-60426_rb"
5141 S Washtenaw Ave #1,Chicago,IL,60632,"https://www.zillow.com/homes/5141-S-Washtenaw-Ave-#1,Chicago-IL-60632_rb"
7244 S Saint Lawrence Ave #2,Chicago,IL,60619,"https://www.zillow.com/homes/7244-S-Saint-Lawrence-Ave-#2,Chicago-IL-60619_rb"
7957 S Wabash Ave,Chicago,IL,60619,"https://www.zillow.com/homes/7957-S-Wabash-Ave,Chicago-IL-60619_rb"
2814 N Kedzie Ave,Chicago,IL,60618,"https://www.zillow.com/homes/2814-N-Kedzie-Ave,Chicago-IL-60618_rb"
4933 W Roscoe St,Chicago,IL,60641,"https://www.zillow.com/homes/4933-W-Roscoe-St,Chicago-IL-60641_rb"
230 W 147th St,Harvey,IL,60426,"https://www.zillow.com/homes/230-W-147th-St,Harvey-IL-60426_rb"
7017 S Woodlawn Ave #1,Chicago,IL,60637,"https://www.zillow.com/homes/7017-S-Woodlawn-Ave-#1,Chicago-IL-60637_rb"
5221 S Michigan Ave,Chicago,IL,60615,"https://www.zillow.com/homes/5221-S-Michigan-Ave,Chicago-IL-60615_rb"
119 E 57th St,Chicago,IL,60637,"https://www.zillow.com/homes/119-E-57th-St,Chicago-IL-60637_rb"
14742 Page Ave,Harvey,IL,60426,"https://www.zillow.com/homes/14742-Page-Ave,Harvey-IL-60426_rb"
15213 Main St,Harvey,IL,60426,"https://www.zillow.com/homes/15213-Main-St,Harvey-IL-60426_rb"
5917 S Green St,Chicago,IL,60621,"https://www.zillow.com/homes/5917-S-Green-St,Chicago-IL-60621_rb"
14905 Page Ave,Harvey,IL,60426,"https://www.zillow.com/homes/14905-Page-Ave,Harvey-IL-60426_rb"
120 E 154th St,Harvey,IL,60426,"https://www.zillow.com/homes/120-E-154th-St,Harvey-IL-60426_rb"
15150 Broadway Ave,Harvey,IL,60426,"https://www.zillow.com/homes/15150-Broadway-Ave,Harvey-IL-60426_rb"
13901 S State St,Riverdale,IL,60827,"https://www.zillow.com/homes/13901-S-State-St,Riverdale-IL-60827_rb"
120 E 154th St,Harvey,IL,60426,"https://www.zillow.com/homes/120-E-154th-St,Harvey-IL-60426_rb"
8239 S Ashland Ave,Chicago,IL,60620,"https://www.zillow.com/homes/8239-S-Ashland-Ave,Chicago-IL-60620_rb"
7847 S Lowe Ave #1,Chicago,IL,60620,"https://www.zillow.com/homes/7847-S-Lowe-Ave-#1,Chicago-IL-60620_rb"
9441 S Ewing Ave,Chicago,IL,60617,"https://www.zillow.com/homes/9441-S-Ewing-Ave,Chicago-IL-60617_rb"
1841 Chicago Rd,Chicago Heights,IL,60411,"https://www.zillow.com/homes/1841-Chicago-Rd,Chicago-Heights-IL-60411_rb"
1403 W 111th St,Chicago,IL,60643,"https://www.zillow.com/homes/1403-W-111th-St,Chicago-IL-60643_rb"
13901 S State St,Riverdale,IL,60827,"https://www.zillow.com/homes/13901-S-State-St,Riverdale-IL-60827_rb"
419 Garfield Ave,Calumet City,IL,60409,"https://www.zillow.com/homes/419-Garfield-Ave,Calumet-City-IL-60409_rb"
1521 S Kilbourn Ave,Chicago,IL,60623,"https://www.zillow.com/homes/1521-S-Kilbourn-Ave,Chicago-IL-60623_rb"
6654 S Michigan Ave #1,Chicago,IL,60637,"https://www.zillow.com/homes/6654-S-Michigan-Ave-#1,Chicago-IL-60637_rb"
7345 S Champlain Ave,Chicago,IL,60619,"https://www.zillow.com/homes/7345-S-Champlain-Ave,Chicago-IL-60619_rb"
15030 University Ave #1,Dolton,IL,60419,"https://www.zillow.com/homes/15030-University-Ave-#1,Dolton-IL-60419_rb"
5537 S Archer Rd,Summit Argo,IL,60501,"https://www.zillow.com/homes/5537-S-Archer-Rd,Summit-Argo-IL-60501_rb"
324 E 68th St,Chicago,IL,60637,"https://www.zillow.com/homes/324-E-68th-St,Chicago-IL-60637_rb"
9605 S Winston Ave,Chicago,IL,60643,"https://www.zillow.com/homes/9605-S-Winston-Ave,Chicago-IL-60643_rb"
7345 S Champlain Ave,Chicago,IL,60619,"https://www.zillow.com/homes/7345-S-Champlain-Ave,Chicago-IL-60619_rb"
6926 S Peoria St,Chicago,IL,60621,"https://www.zillow.com/homes/6926-S-Peoria-St,Chicago-IL-60621_rb"
6539 S Saint Lawrence Ave,Chicago,IL,60637,"https://www.zillow.com/homes/6539-S-Saint-Lawrence-Ave,Chicago-IL-60637_rb"
8228 S Ada St,Chicago,IL,60620,"https://www.zillow.com/homes/8228-S-Ada-St,Chicago-IL-60620_rb"
7652 S Union Ave #2fl,Chicago,IL,60620,"https://www.zillow.com/homes/7652-S-Union-Ave-#2fl,Chicago-IL-60620_rb"
3214 W 137th St,Robbins,IL,60472,"https://www.zillow.com/homes/3214-W-137th-St,Robbins-IL-60472_rb"
6906 S Woodlawn Ave #1f,Chicago,IL,60637,"https://www.zillow.com/homes/6906-S-Woodlawn-Ave-#1f,Chicago-IL-60637_rb"
9239 S Cregier Ave,Chicago,IL,60617,"https://www.zillow.com/homes/9239-S-Cregier-Ave,Chicago-IL-60617_rb"
8758 S Cottage Grove Ave #2,Chicago,IL,60619,"https://www.zillow.com/homes/8758-S-Cottage-Grove-Ave-#2,Chicago-IL-60619_rb"
2430 S 50th Ave #1,Cicero,IL,60804,"https://www.zillow.com/homes/2430-S-50th-Ave-#1,Cicero-IL-60804_rb"
7246 S East End Ave,Chicago,IL,60649,"https://www.zillow.com/homes/7246-S-East-End-Ave,Chicago-IL-60649_rb"
10832 S Calumet Ave,Chicago,IL,60628,"https://www.zillow.com/homes/10832-S-Calumet-Ave,Chicago-IL-60628_rb"
7828 S Peoria St #2,Chicago,IL,60620,"https://www.zillow.com/homes/7828-S-Peoria-St-#2,Chicago-IL-60620_rb"
8309 S Throop St,Chicago,IL,60620,"https://www.zillow.com/homes/8309-S-Throop-St,Chicago-IL-60620_rb"
7351 S Calumet Ave #1,Chicago,IL,60619,"https://www.zillow.com/homes/7351-S-Calumet-Ave-#1,Chicago-IL-60619_rb"
8223 S Evans Ave #1,Chicago,IL,60619,"https://www.zillow.com/homes/8223-S-Evans-Ave-#1,Chicago-IL-60619_rb"
668 Clyde Ave,Calumet City,IL,60409,"https://www.zillow.com/homes/668-Clyde-Ave,Calumet-City-IL-60409_rb"
8043 S Langley Ave #1fl,Chicago,IL,60619,"https://www.zillow.com/homes/8043-S-Langley-Ave-#1fl,Chicago-IL-60619_rb"
1004 Linden Ave,Bellwood,IL,60104,"https://www.zillow.com/homes/1004-Linden-Ave,Bellwood-IL-60104_rb"
1246 S Central Park Ave,Chicago,IL,60623,"https://www.zillow.com/homes/1246-S-Central-Park-Ave,Chicago-IL-60623_rb"
8250 S Kedzie Ave,Chicago,IL,60652,"https://www.zillow.com/homes/8250-S-Kedzie-Ave,Chicago-IL-60652_rb"
8512 S Bennett Ave,Chicago,IL,60617,"https://www.zillow.com/homes/8512-S-Bennett-Ave,Chicago-IL-60617_rb"
1625 N Meade Ave #1,Chicago,IL,60639,"https://www.zillow.com/homes/1625-N-Meade-Ave-#1,Chicago-IL-60639_rb"
10137 S Western Ave,Chicago,IL,60643,"https://www.zillow.com/homes/10137-S-Western-Ave,Chicago-IL-60643_rb"
6137 S Evans Ave #1flr,Chicago,IL,60637,"https://www.zillow.com/homes/6137-S-Evans-Ave-#1flr,Chicago-IL-60637_rb"
5438 W 24th St,Cicero,IL,60804,"https://www.zillow.com/homes/5438-W-24th-St,Cicero-IL-60804_rb"
6222 S Vernon Ave #1,Chicago,IL,60637,"https://www.zillow.com/homes/6222-S-Vernon-Ave-#1,Chicago-IL-60637_rb"
7147 S East End Ave,Chicago,IL,60649,"https://www.zillow.com/homes/7147-S-East-End-Ave,Chicago-IL-60649_rb"
3027 W Polk St,Chicago,IL,60612,"https://www.zillow.com/homes/3027-W-Polk-St,Chicago-IL-60612_rb"
8244 S Evans Ave #1,Chicago,IL,60619,"https://www.zillow.com/homes/8244-S-Evans-Ave-#1,Chicago-IL-60619_rb"
7309 S Bennett Ave #2b,Chicago,IL,60649,"https://www.zillow.com/homes/7309-S-Bennett-Ave-#2b,Chicago-IL-60649_rb"
3329 S Racine Ave,Chicago,IL,60608,"https://www.zillow.com/homes/3329-S-Racine-Ave,Chicago-IL-60608_rb"
2232 S Wood St #1,Chicago,IL,60608,"https://www.zillow.com/homes/2232-S-Wood-St-#1,Chicago-IL-60608_rb"
2114 N Hamlin Ave,Chicago,IL,60647,"https://www.zillow.com/homes/2114-N-Hamlin-Ave,Chicago-IL-60647_rb"
4746 S Langley Ave,Chicago,IL,60615,"https://www.zillow.com/homes/4746-S-Langley-Ave,Chicago-IL-60615_rb"
3744 S Wabash Ave,Chicago,IL,60653,"https://www.zillow.com/homes/3744-S-Wabash-Ave,Chicago-IL-60653_rb"
9024 Bennett Ave,Evanston,IL,60203,"https://www.zillow.com/homes/9024-Bennett-Ave,Evanston-IL-60203_rb"
2201 W 21st Pl,Chicago,IL,60608,"https://www.zillow.com/homes/2201-W-21st-Pl,Chicago-IL-60608_rb"
1732 W 21st St,Chicago,IL,60608,"https://www.zillow.com/homes/1732-W-21st-St,Chicago-IL-60608_rb"
4325 S Berkeley Ave,Chicago,IL,60653,"https://www.zillow.com/homes/4325-S-Berkeley-Ave,Chicago-IL-60653_rb"
2128 W 22nd Pl,Chicago,IL,60608,"https://www.zillow.com/homes/2128-W-22nd-Pl,Chicago-IL-60608_rb"
2219 N Sawyer Ave,Chicago,IL,60647,"https://www.zillow.com/homes/2219-N-Sawyer-Ave,Chicago-IL-60647_rb"
1512 N Greenview Ave,Chicago,IL,60642,"https://www.zillow.com/homes/1512-N-Greenview-Ave,Chicago-IL-60642_rb"
3909 N Ashland Ave,Chicago,IL,60613,"https://www.zillow.com/homes/3909-N-Ashland-Ave,Chicago-IL-60613_rb"
3420 W Dickens Ave #B,Chicago,IL,60647,"https://www.zillow.com/homes/3420-W-Dickens-Ave-#B,Chicago-IL-60647_rb"
9242 S Anthony Ave,Chicago,IL,60617,"https://www.zillow.com/homes/9242-S-Anthony-Ave,Chicago-IL-60617_rb"
2949 W Adams St,Chicago,IL,60612,"https://www.zillow.com/homes/2949-W-Adams-St,Chicago-IL-60612_rb"
5426 S Dearborn St,Chicago,IL,60609,"https://www.zillow.com/homes/5426-S-Dearborn-St,Chicago-IL-60609_rb"
7918 S Union Ave,Chicago,IL,60620,"https://www.zillow.com/homes/7918-S-Union-Ave,Chicago-IL-60620_rb"
8359 S Racine Ave,Chicago,IL,60620,"https://www.zillow.com/homes/8359-S-Racine-Ave,Chicago-IL-60620_rb"
8359 S Racine Ave,Chicago,IL,60620,"https://www.zillow.com/homes/8359-S-Racine-Ave,Chicago-IL-60620_rb"
16545 State St,South Holland,IL,60473,"https://www.zillow.com/homes/16545-State-St,South-Holland-IL-60473_rb"
345 W Taft Dr,South Holland,IL,60473,"https://www.zillow.com/homes/345-W-Taft-Dr,South-Holland-IL-60473_rb"
155 W Sibley Blvd,South Holland,IL,60473,"https://www.zillow.com/homes/155-W-Sibley-Blvd,South-Holland-IL-60473_rb"
2560 Bernice Rd,Lansing,IL,60438,"https://www.zillow.com/homes/2560-Bernice-Rd,Lansing-IL-60438_rb"
155 W Sibley Blvd,South Holland,IL,60473,"https://www.zillow.com/homes/155-W-Sibley-Blvd,South-Holland-IL-60473_rb"
6138 N Damen Ave #2a,Chicago,IL,60659,"https://www.zillow.com/homes/6138-N-Damen-Ave-#2a,Chicago-IL-60659_rb"
5978 N Lincoln Ave #5c,Chicago,IL,60659,"https://www.zillow.com/homes/5978-N-Lincoln-Ave-#5c,Chicago-IL-60659_rb"
2301 Holiday Ter #2,Lansing,IL,60438,"https://www.zillow.com/homes/2301-Holiday-Ter-#2,Lansing-IL-60438_rb"
2545 S Dearborn St #306,Chicago,IL,60616,"https://www.zillow.com/homes/2545-S-Dearborn-St-#306,Chicago-IL-60616_rb"
2315 E Olive St #2b,Arlington Heights,IL,60004,"https://www.zillow.com/homes/2315-E-Olive-St-#2b,Arlington-Heights-IL-60004_rb"
10609 Parkside Ave #201,Chicago Ridge,IL,60415,"https://www.zillow.com/homes/10609-Parkside-Ave-#201,Chicago-Ridge-IL-60415_rb"
1001 W 15th St #135,Chicago,IL,60608,"https://www.zillow.com/homes/1001-W-15th-St-#135,Chicago-IL-60608_rb"
1139 Leavitt Ave #315,Flossmoor,IL,60422,"https://www.zillow.com/homes/1139-Leavitt-Ave-#315,Flossmoor-IL-60422_rb"
1369 W Crystal St #3,Chicago,IL,60642,"https://www.zillow.com/homes/1369-W-Crystal-St-#3,Chicago-IL-60642_rb"
3505 Oak Park Ave #C2,Berwyn,IL,60402,"https://www.zillow.com/homes/3505-Oak-Park-Ave-#C2,Berwyn-IL-60402_rb"
12 King Arthur Ct #1,Northlake,IL,60164,"https://www.zillow.com/homes/12-King-Arthur-Ct-#1,Northlake-IL-60164_rb"
701 W Huntington Commons Rd #213,Mount Prospect,IL,60056,"https://www.zillow.com/homes/701-W-Huntington-Commons-Rd-#213,Mount-Prospect-IL-60056_rb"
2615 E 74th St #2w,Chicago,IL,60649,"https://www.zillow.com/homes/2615-E-74th-St-#2w,Chicago-IL-60649_rb"
1737 W 95th Pl #1,Chicago,IL,60643,"https://www.zillow.com/homes/1737-W-95th-Pl-#1,Chicago-IL-60643_rb"
500 Lake St #502,Evanston,IL,60201,"https://www.zillow.com/homes/500-Lake-St-#502,Evanston-IL-60201_rb"
675 Heritage Dr #7-205,Hoffman Estates,IL,60169,"https://www.zillow.com/homes/675-Heritage-Dr-#7-205,Hoffman-Estates-IL-60169_rb"
4820 N Avers Ave #4820-3,Chicago,IL,60625,"https://www.zillow.com/homes/4820-N-Avers-Ave-#4820-3,Chicago-IL-60625_rb"
6700 S Brainard Ave #411,Countryside,IL,60525,"https://www.zillow.com/homes/6700-S-Brainard-Ave-#411,Countryside-IL-60525_rb"
4300 N Marine Dr #1104,Chicago,IL,60613,"https://www.zillow.com/homes/4300-N-Marine-Dr-#1104,Chicago-IL-60613_rb"
11915 S Lawndale Ave #2b3,Alsip,IL,60803,"https://www.zillow.com/homes/11915-S-Lawndale-Ave-#2b3,Alsip-IL-60803_rb"
200 Park Ave #221,Calumet City,IL,60409,"https://www.zillow.com/homes/200-Park-Ave-#221,Calumet-City-IL-60409_rb"
3266 Sanders Rd #6a,Northbrook,IL,60062,"https://www.zillow.com/homes/3266-Sanders-Rd-#6a,Northbrook-IL-60062_rb"
1400 E 55th Pl #508s,Chicago,IL,60637,"https://www.zillow.com/homes/1400-E-55th-Pl-#508s,Chicago-IL-60637_rb"
1139 Leavitt Ave #311,Flossmoor,IL,60422,"https://www.zillow.com/homes/1139-Leavitt-Ave-#311,Flossmoor-IL-60422_rb"
4350 W Ford City Dr #B1504,Chicago,IL,60652,"https://www.zillow.com/homes/4350-W-Ford-City-Dr-#B1504,Chicago-IL-60652_rb"
840 Wellington Ave #108,Elk Grove Village,IL,60007,"https://www.zillow.com/homes/840-Wellington-Ave-#108,Elk-Grove-Village-IL-60007_rb"
9670 Franklin Ave #204,Franklin Park,IL,60131,"https://www.zillow.com/homes/9670-Franklin-Ave-#204,Franklin-Park-IL-60131_rb"
20132 Willow Dr #16,Lynwood,IL,60411,"https://www.zillow.com/homes/20132-Willow-Dr-#16,Lynwood-IL-60411_rb"
3038 Palmer Ct #50,Flossmoor,IL,60422,"https://www.zillow.com/homes/3038-Palmer-Ct-#50,Flossmoor-IL-60422_rb"
2441 W Harrison St #G,Chicago,IL,60612,"https://www.zillow.com/homes/2441-W-Harrison-St-#G,Chicago-IL-60612_rb"
5424 W Ferdinand St #419,Chicago,IL,60644,"https://www.zillow.com/homes/5424-W-Ferdinand-St-#419,Chicago-IL-60644_rb"
1151 W 14th Pl #210,Chicago,IL,60608,"https://www.zillow.com/homes/1151-W-14th-Pl-#210,Chicago-IL-60608_rb"
4137 W 97th Pl #1-211,Oak Lawn,IL,60453,"https://www.zillow.com/homes/4137-W-97th-Pl-#1-211,Oak-Lawn-IL-60453_rb"
1280 Rudolph Rd #4g,Northbrook,IL,60062,"https://www.zillow.com/homes/1280-Rudolph-Rd-#4g,Northbrook-IL-60062_rb"
4011 N Francisco Ave #401,Chicago,IL,60618,"https://www.zillow.com/homes/4011-N-Francisco-Ave-#401,Chicago-IL-60618_rb"
6300 S Woodlawn Ave #1,Chicago,IL,60637,"https://www.zillow.com/homes/6300-S-Woodlawn-Ave-#1,Chicago-IL-60637_rb"
401 Ascot Dr,Park Ridge,IL,60068,"https://www.zillow.com/homes/401-Ascot-Dr,Park-Ridge-IL-60068_rb"
3041 S Michigan Ave #106,Chicago,IL,60616,"https://www.zillow.com/homes/3041-S-Michigan-Ave-#106,Chicago-IL-60616_rb"
830 Elder Rd #B307,Homewood,IL,60430,"https://www.zillow.com/homes/830-Elder-Rd-#B307,Homewood-IL-60430_rb"
3950 N Lake Shore Dr #924,Chicago,IL,60613,"https://www.zillow.com/homes/3950-N-Lake-Shore-Dr-#924,Chicago-IL-60613_rb"
2201 W Morse Ave #3n,Chicago,IL,60645,"https://www.zillow.com/homes/2201-W-Morse-Ave-#3n,Chicago-IL-60645_rb"
10437 Natoma Ave #2,Chicago Ridge,IL,60415,"https://www.zillow.com/homes/10437-Natoma-Ave-#2,Chicago-Ridge-IL-60415_rb"
5703 128th St #11,Crestwood,IL,60418,"https://www.zillow.com/homes/5703-128th-St-#11,Crestwood-IL-60418_rb"
30 Michael Rd,Park Forest,IL,60466,"https://www.zillow.com/homes/30-Michael-Rd,Park-Forest-IL-60466_rb"
30 King Arthur Ct #12,Northlake,IL,60164,"https://www.zillow.com/homes/30-King-Arthur-Ct-#12,Northlake-IL-60164_rb"
450 S Western Ave #506,Des Plaines,IL,60016,"https://www.zillow.com/homes/450-S-Western-Ave-#506,Des-Plaines-IL-60016_rb"
6851 S Chappel Ave #G,Chicago,IL,60649,"https://www.zillow.com/homes/6851-S-Chappel-Ave-#G,Chicago-IL-60649_rb"
41 Churn Rd,Matteson,IL,60443,"https://www.zillow.com/homes/41-Churn-Rd,Matteson-IL-60443_rb"
4907 N Central Ave #7,Chicago,IL,60630,"https://www.zillow.com/homes/4907-N-Central-Ave-#7,Chicago-IL-60630_rb"
7708 S Essex Ave #2s,Chicago,IL,60649,"https://www.zillow.com/homes/7708-S-Essex-Ave-#2s,Chicago-IL-60649_rb"
6136 S Kensington Ave #106,Countryside,IL,60525,"https://www.zillow.com/homes/6136-S-Kensington-Ave-#106,Countryside-IL-60525_rb"
716 E Glenwood Dyer Rd #A,Glenwood,IL,60425,"https://www.zillow.com/homes/716-E-Glenwood-Dyer-Rd-#A,Glenwood-IL-60425_rb"
3853 W Ainslie St #1,Chicago,IL,60625,"https://www.zillow.com/homes/3853-W-Ainslie-St-#1,Chicago-IL-60625_rb"
100 E 14th St #Gu-224,Chicago,IL,60605,"https://www.zillow.com/homes/100-E-14th-St-#Gu-224,Chicago-IL-60605_rb"
7553 N Ridge Blvd #2,Chicago,IL,60645,"https://www.zillow.com/homes/7553-N-Ridge-Blvd-#2,Chicago-IL-60645_rb"
850 N Dewitt Pl #8e,Chicago,IL,60611,"https://www.zillow.com/homes/850-N-Dewitt-Pl-#8e,Chicago-IL-60611_rb"
4 N 3rd Ave,Maywood,IL,60153,"https://www.zillow.com/homes/4-N-3rd-Ave,Maywood-IL-60153_rb"
6 3rd,,IL,,"https://www.zillow.com/homes/6-3rd,-IL-_rb"
4702 W Belden St #4702-1,Chicago,IL,60639,"https://www.zillow.com/homes/4702-W-Belden-St-#4702-1,Chicago-IL-60639_rb"
18217 Hart Dr #6b,Homewood,IL,60430,"https://www.zillow.com/homes/18217-Hart-Dr-#6b,Homewood-IL-60430_rb"
1715 W Estes Ave #2s,Chicago,IL,60626,"https://www.zillow.com/homes/1715-W-Estes-Ave-#2s,Chicago-IL-60626_rb"
6506 S Minerva Ave #1s,Chicago,IL,60637,"https://www.zillow.com/homes/6506-S-Minerva-Ave-#1s,Chicago-IL-60637_rb"
8629 W Foster Ave #5-2b,Chicago,IL,60656,"https://www.zillow.com/homes/8629-W-Foster-Ave-#5-2b,Chicago-IL-60656_rb"
1728 W Rosehill Dr #1b,Chicago,IL,60660,"https://www.zillow.com/homes/1728-W-Rosehill-Dr-#1b,Chicago-IL-60660_rb"
3950 N Lake Shore Dr #1623,Chicago,IL,60613,"https://www.zillow.com/homes/3950-N-Lake-Shore-Dr-#1623,Chicago-IL-60613_rb"
2922 N Sacramento Ave #1e,Chicago,IL,60618,"https://www.zillow.com/homes/2922-N-Sacramento-Ave-#1e,Chicago-IL-60618_rb"
340 E Randolph St #4105,Chicago,IL,60601,"https://www.zillow.com/homes/340-E-Randolph-St-#4105,Chicago-IL-60601_rb"
8701 S Mozart Ave #4,Evergreen Park,IL,60805,"https://www.zillow.com/homes/8701-S-Mozart-Ave-#4,Evergreen-Park-IL-60805_rb"
2500 Windsor Mall,Park Ridge,IL,60068,"https://www.zillow.com/homes/2500-Windsor-Mall,Park-Ridge-IL-60068_rb"
8340 Callie Ave #312,Morton Grove,IL,60053,"https://www.zillow.com/homes/8340-Callie-Ave-#312,Morton-Grove-IL-60053_rb"
130 N Garland Ct #2109,Chicago,IL,60602,"https://www.zillow.com/homes/130-N-Garland-Ct-#2109,Chicago-IL-60602_rb"
111 E Chestnut St #2000f,Chicago,IL,60611,"https://www.zillow.com/homes/111-E-Chestnut-St-#2000f,Chicago-IL-60611_rb"
2041 W Birchwood Ave #2,Chicago,IL,60645,"https://www.zillow.com/homes/2041-W-Birchwood-Ave-#2,Chicago-IL-60645_rb"
7858 Rutherford Ave #2d,Burbank,IL,60459,"https://www.zillow.com/homes/7858-Rutherford-Ave-#2d,Burbank-IL-60459_rb"
2303 Holiday Ter #40,Lansing,IL,60438,"https://www.zillow.com/homes/2303-Holiday-Ter-#40,Lansing-IL-60438_rb"
5121 W Diversey Ave #1n,Chicago,IL,60639,"https://www.zillow.com/homes/5121-W-Diversey-Ave-#1n,Chicago-IL-60639_rb"
6328 S Drexel Ave #2,Chicago,IL,60637,"https://www.zillow.com/homes/6328-S-Drexel-Ave-#2,Chicago-IL-60637_rb"
19402 Elm Dr #38b,Country Club Hills,IL,60478,"https://www.zillow.com/homes/19402-Elm-Dr-#38b,Country-Club-Hills-IL-60478_rb"
222 N Columbus Dr #1102,Chicago,IL,60601,"https://www.zillow.com/homes/222-N-Columbus-Dr-#1102,Chicago-IL-60601_rb"
9440 S 51st Ave #309,Oak Lawn,IL,60453,"https://www.zillow.com/homes/9440-S-51st-Ave-#309,Oak-Lawn-IL-60453_rb"
405 N Wabash Ave #413,Chicago,IL,60611,"https://www.zillow.com/homes/405-N-Wabash-Ave-#413,Chicago-IL-60611_rb"
55 W Delaware Pl #611,Chicago,IL,60610,"https://www.zillow.com/homes/55-W-Delaware-Pl-#611,Chicago-IL-60610_rb"
6435 S Kenwood Ave #Gs,Chicago,IL,60637,"https://www.zillow.com/homes/6435-S-Kenwood-Ave-#Gs,Chicago-IL-60637_rb"
1970 N Coldspring Rd,Arlington Heights,IL,60004,"https://www.zillow.com/homes/1970-N-Coldspring-Rd,Arlington-Heights-IL-60004_rb"
350 E Dundee Rd #301,Buffalo Grove,IL,60089,"https://www.zillow.com/homes/350-E-Dundee-Rd-#301,Buffalo-Grove-IL-60089_rb"
1606 N New England Ave #1,Chicago,IL,60707,"https://www.zillow.com/homes/1606-N-New-England-Ave-#1,Chicago-IL-60707_rb"
4350 W Ford City Dr #B1402,Chicago,IL,60652,"https://www.zillow.com/homes/4350-W-Ford-City-Dr-#B1402,Chicago-IL-60652_rb"
7101 98th St #101,Chicago Ridge,IL,60415,"https://www.zillow.com/homes/7101-98th-St-#101,Chicago-Ridge-IL-60415_rb"
7351 S Kingston Ave #2s,Chicago,IL,60649,"https://www.zillow.com/homes/7351-S-Kingston-Ave-#2s,Chicago-IL-60649_rb"
7100 S Cottage Grove Ave #11,Chicago,IL,60619,"https://www.zillow.com/homes/7100-S-Cottage-Grove-Ave-#11,Chicago-IL-60619_rb"
1227 S Harlem Ave #Gs7,Berwyn,IL,60402,"https://www.zillow.com/homes/1227-S-Harlem-Ave-#Gs7,Berwyn-IL-60402_rb"
7100 S Cottage Grove Ave #7,Chicago,IL,60619,"https://www.zillow.com/homes/7100-S-Cottage-Grove-Ave-#7,Chicago-IL-60619_rb"
2319 W Harrison St #1,Chicago,IL,60612,"https://www.zillow.com/homes/2319-W-Harrison-St-#1,Chicago-IL-60612_rb"
4300 W Ford City Dr #A310,Chicago,IL,60652,"https://www.zillow.com/homes/4300-W-Ford-City-Dr-#A310,Chicago-IL-60652_rb"
7240 N Ridge Blvd #101,Chicago,IL,60645,"https://www.zillow.com/homes/7240-N-Ridge-Blvd-#101,Chicago-IL-60645_rb"
2712 W Catalpa Ave #1e,Chicago,IL,60625,"https://www.zillow.com/homes/2712-W-Catalpa-Ave-#1e,Chicago-IL-60625_rb"
755 Grove Dr #206,Buffalo Grove,IL,60089,"https://www.zillow.com/homes/755-Grove-Dr-#206,Buffalo-Grove-IL-60089_rb"
4800 S Chicago Beach Dr #1505n,Chicago,IL,60615,"https://www.zillow.com/homes/4800-S-Chicago-Beach-Dr-#1505n,Chicago-IL-60615_rb"
456 W Surf St #3f,Chicago,IL,60657,"https://www.zillow.com/homes/456-W-Surf-St-#3f,Chicago-IL-60657_rb"
1003 8th Ave #11-9,La Grange,IL,60525,"https://www.zillow.com/homes/1003-8th-Ave-#11-9,La-Grange-IL-60525_rb"
412 N Marion St #3c,Oak Park,IL,60302,"https://www.zillow.com/homes/412-N-Marion-St-#3c,Oak-Park-IL-60302_rb"
240 N Carter St #201,Palatine,IL,60067,"https://www.zillow.com/homes/240-N-Carter-St-#201,Palatine-IL-60067_rb"
14010 James #727,Crestwood,IL,60418,"https://www.zillow.com/homes/14010-James-#727,Crestwood-IL-60418_rb"
9051 S Roberts Rd #313,Hickory Hills,IL,60457,"https://www.zillow.com/homes/9051-S-Roberts-Rd-#313,Hickory-Hills-IL-60457_rb"
339 W Barry Ave #14a,Chicago,IL,60657,"https://www.zillow.com/homes/339-W-Barry-Ave-#14a,Chicago-IL-60657_rb"
5340 N Lowell Ave #210,Chicago,IL,60630,"https://www.zillow.com/homes/5340-N-Lowell-Ave-#210,Chicago-IL-60630_rb"
5001 Carriageway Dr #A205,Rolling Meadows,IL,60008,"https://www.zillow.com/homes/5001-Carriageway-Dr-#A205,Rolling-Meadows-IL-60008_rb"
6441 W Warner Ave #309,Chicago,IL,60634,"https://www.zillow.com/homes/6441-W-Warner-Ave-#309,Chicago-IL-60634_rb"
100 Park Ave #703,Calumet City,IL,60409,"https://www.zillow.com/homes/100-Park-Ave-#703,Calumet-City-IL-60409_rb"
2615 E 74th St #G-1,Chicago,IL,60649,"https://www.zillow.com/homes/2615-E-74th-St-#G-1,Chicago-IL-60649_rb"
661 Chappel Ave #3b,Calumet City,IL,60409,"https://www.zillow.com/homes/661-Chappel-Ave-#3b,Calumet-City-IL-60409_rb"
5227 James Ln #1418,Crestwood,IL,60418,"https://www.zillow.com/homes/5227-James-Ln-#1418,Crestwood-IL-60418_rb"
9221 Drake Ave #108,Evanston,IL,60203,"https://www.zillow.com/homes/9221-Drake-Ave-#108,Evanston-IL-60203_rb"
7532 W Belmont Ave #1f,Chicago,IL,60634,"https://www.zillow.com/homes/7532-W-Belmont-Ave-#1f,Chicago-IL-60634_rb"
2320 N Nordica Ave #207,Chicago,IL,60707,"https://www.zillow.com/homes/2320-N-Nordica-Ave-#207,Chicago-IL-60707_rb"
300 Park Ave #236,Calumet City,IL,60409,"https://www.zillow.com/homes/300-Park-Ave-#236,Calumet-City-IL-60409_rb"
3048 Matthew Ln #A3,Homewood,IL,60430,"https://www.zillow.com/homes/3048-Matthew-Ln-#A3,Homewood-IL-60430_rb"
1420 Sheridan Rd #2a,Wilmette,IL,60091,"https://www.zillow.com/homes/1420-Sheridan-Rd-#2a,Wilmette-IL-60091_rb"
9830 Sayre Ave #9,Chicago Ridge,IL,60415,"https://www.zillow.com/homes/9830-Sayre-Ave-#9,Chicago-Ridge-IL-60415_rb"
1320 Oakton St #5,Evanston,IL,60202,"https://www.zillow.com/homes/1320-Oakton-St-#5,Evanston-IL-60202_rb"
286 Odlum Ct #19198,Schaumburg,IL,60194,"https://www.zillow.com/homes/286-Odlum-Ct-#19198,Schaumburg-IL-60194_rb"
1005 E 194th St #104c,Glenwood,IL,60425,"https://www.zillow.com/homes/1005-E-194th-St-#104c,Glenwood-IL-60425_rb"
940 Holbrook Rd #47aa,Homewood,IL,60430,"https://www.zillow.com/homes/940-Holbrook-Rd-#47aa,Homewood-IL-60430_rb"
233 E 13th St #Csu1,Chicago,IL,60605,"https://www.zillow.com/homes/233-E-13th-St-#Csu1,Chicago-IL-60605_rb"
800 S Wells St #M24,Chicago,IL,60607,"https://www.zillow.com/homes/800-S-Wells-St-#M24,Chicago-IL-60607_rb"
6700 S South Shore Dr #15e,Chicago,IL,60649,"https://www.zillow.com/homes/6700-S-South-Shore-Dr-#15e,Chicago-IL-60649_rb"
111 S Morgan St #Pu240,Chicago,IL,60607,"https://www.zillow.com/homes/111-S-Morgan-St-#Pu240,Chicago-IL-60607_rb"
1005 E 194th St #303,Glenwood,IL,60425,"https://www.zillow.com/homes/1005-E-194th-St-#303,Glenwood-IL-60425_rb"
665 Grove Dr #111,Buffalo Grove,IL,60089,"https://www.zillow.com/homes/665-Grove-Dr-#111,Buffalo-Grove-IL-60089_rb"
9506 Glenlake Ave #212,Des Plaines,IL,60018,"https://www.zillow.com/homes/9506-Glenlake-Ave-#212,Des-Plaines-IL-60018_rb"
2520 N Lakeview Ave,Chicago,IL,60614,"https://www.zillow.com/homes/2520-N-Lakeview-Ave,Chicago-IL-60614_rb"
7901 S Ellis Ave,Chicago,IL,60619,"https://www.zillow.com/homes/7901-S-Ellis-Ave,Chicago-IL-60619_rb"
655 W Irving Park Rd #M2,Chicago,IL,60613,"https://www.zillow.com/homes/655-W-Irving-Park-Rd-#M2,Chicago-IL-60613_rb"
9506 Glenlake Ave #211,Des Plaines,IL,60018,"https://www.zillow.com/homes/9506-Glenlake-Ave-#211,Des-Plaines-IL-60018_rb"
6701 S Crandon Ave #18b,Chicago,IL,60649,"https://www.zillow.com/homes/6701-S-Crandon-Ave-#18b,Chicago-IL-60649_rb"
9400 S 79th Ave #G-43,Hickory Hills,IL,60457,"https://www.zillow.com/homes/9400-S-79th-Ave-#G-43,Hickory-Hills-IL-60457_rb"
9400 S 79th Ave #G-42,Hickory Hills,IL,60457,"https://www.zillow.com/homes/9400-S-79th-Ave-#G-42,Hickory-Hills-IL-60457_rb"
9504 Glenlake Ave #216,Rosemont,IL,60018,"https://www.zillow.com/homes/9504-Glenlake-Ave-#216,Rosemont-IL-60018_rb"
7120 N Sheridan Rd #203,Chicago,IL,60626,"https://www.zillow.com/homes/7120-N-Sheridan-Rd-#203,Chicago-IL-60626_rb"
2615 E 74th St #G-2,Chicago,IL,60649,"https://www.zillow.com/homes/2615-E-74th-St-#G-2,Chicago-IL-60649_rb"
9504 Glenlake Ave #214,Rosemont,IL,60018,"https://www.zillow.com/homes/9504-Glenlake-Ave-#214,Rosemont-IL-60018_rb"
6118 N Sheridan Rd #610,Chicago,IL,60660,"https://www.zillow.com/homes/6118-N-Sheridan-Rd-#610,Chicago-IL-60660_rb"
120 Boardwalk St #5,Elk Grove Village,IL,60007,"https://www.zillow.com/homes/120-Boardwalk-St-#5,Elk-Grove-Village-IL-60007_rb"
9701 N Dee Rd #4b,Niles,IL,60714,"https://www.zillow.com/homes/9701-N-Dee-Rd-#4b,Niles-IL-60714_rb"
9350 W Church St #102b,Des Plaines,IL,60016,"https://www.zillow.com/homes/9350-W-Church-St-#102b,Des-Plaines-IL-60016_rb"
16825 81st Ct #32n,Tinley Park,IL,60477,"https://www.zillow.com/homes/16825-81st-Ct-#32n,Tinley-Park-IL-60477_rb"
16825 81st Ct #3s,Tinley Park,IL,60477,"https://www.zillow.com/homes/16825-81st-Ct-#3s,Tinley-Park-IL-60477_rb"
5056 N Marine Dr #C3,Chicago,IL,60640,"https://www.zillow.com/homes/5056-N-Marine-Dr-#C3,Chicago-IL-60640_rb"
8100 S 81st Avenue 3s #3w,Tinley Park,IL,60477,"https://www.zillow.com/homes/8100-S-81st-Avenue-3s-#3w,Tinley-Park-IL-60477_rb"
4150 Central Rd #3e,Glenview,IL,60025,"https://www.zillow.com/homes/4150-Central-Rd-#3e,Glenview-IL-60025_rb"
7967 164th Pl #84,Tinley Park,IL,60477,"https://www.zillow.com/homes/7967-164th-Pl-#84,Tinley-Park-IL-60477_rb"
6220 N Ridge Ave #S206,Chicago,IL,60660,"https://www.zillow.com/homes/6220-N-Ridge-Ave-#S206,Chicago-IL-60660_rb"
8920 David Pl #207g,Des Plaines,IL,60016,"https://www.zillow.com/homes/8920-David-Pl-#207g,Des-Plaines-IL-60016_rb"
6533 N Northwest Hwy #2d,Chicago,IL,60631,"https://www.zillow.com/homes/6533-N-Northwest-Hwy-#2d,Chicago-IL-60631_rb"
2248 N Baldwin Way #108-2,Palatine,IL,60074,"https://www.zillow.com/homes/2248-N-Baldwin-Way-#108-2,Palatine-IL-60074_rb"
238 Whidah Ct,Schaumburg,IL,60194,"https://www.zillow.com/homes/238-Whidah-Ct,Schaumburg-IL-60194_rb"
1120 Quanset Ct,Schaumburg,IL,60194,"https://www.zillow.com/homes/1120-Quanset-Ct,Schaumburg-IL-60194_rb"
1501 Plymouth Pl #35,Glenview,IL,60025,"https://www.zillow.com/homes/1501-Plymouth-Pl-#35,Glenview-IL-60025_rb"
4900 N Marine Dr #401,Chicago,IL,60640,"https://www.zillow.com/homes/4900-N-Marine-Dr-#401,Chicago-IL-60640_rb"
3925 Triumvera Dr #A14c,Glenview,IL,60025,"https://www.zillow.com/homes/3925-Triumvera-Dr-#A14c,Glenview-IL-60025_rb"
5114 S Woodlawn Ave #1j,Chicago,IL,60615,"https://www.zillow.com/homes/5114-S-Woodlawn-Ave-#1j,Chicago-IL-60615_rb"
2723 W Rosemont Ave #1w,Chicago,IL,60659,"https://www.zillow.com/homes/2723-W-Rosemont-Ave-#1w,Chicago-IL-60659_rb"
650 W Wayman St #Mpu-2,Chicago,IL,60661,"https://www.zillow.com/homes/650-W-Wayman-St-#Mpu-2,Chicago-IL-60661_rb"
1518 Camden Ct #D1,Wheeling,IL,60090,"https://www.zillow.com/homes/1518-Camden-Ct-#D1,Wheeling-IL-60090_rb"
600 Bridgeport Pl #36b,Wheeling,IL,60090,"https://www.zillow.com/homes/600-Bridgeport-Pl-#36b,Wheeling-IL-60090_rb"
400 E Randolph St #1712,Chicago,IL,60601,"https://www.zillow.com/homes/400-E-Randolph-St-#1712,Chicago-IL-60601_rb"
728 W Jackson Blvd #1,Chicago,IL,60661,"https://www.zillow.com/homes/728-W-Jackson-Blvd-#1,Chicago-IL-60661_rb"
6637 N Glenwood Ave #3n,Chicago,IL,60626,"https://www.zillow.com/homes/6637-N-Glenwood-Ave-#3n,Chicago-IL-60626_rb"
1701 N Melvina Ave #7,Chicago,IL,60639,"https://www.zillow.com/homes/1701-N-Melvina-Ave-#7,Chicago-IL-60639_rb"
651 W Sheridan Rd #5b,Chicago,IL,60613,"https://www.zillow.com/homes/651-W-Sheridan-Rd-#5b,Chicago-IL-60613_rb"
4826 Kenmore,,IL,,"https://www.zillow.com/homes/4826-Kenmore,-IL-_rb"
842 W Wrightwood Ave #1,Chicago,IL,60614,"https://www.zillow.com/homes/842-W-Wrightwood-Ave-#1,Chicago-IL-60614_rb"
1219 E Madison Park #3,Chicago,IL,60615,"https://www.zillow.com/homes/1219-E-Madison-Park-#3,Chicago-IL-60615_rb"
18205 Hart Dr,Homewood,IL,60430,"https://www.zillow.com/homes/18205-Hart-Dr,Homewood-IL-60430_rb"
5100 W 96th St #Ps37,Oak Lawn,IL,60453,"https://www.zillow.com/homes/5100-W-96th-St-#Ps37,Oak-Lawn-IL-60453_rb"
60 E Monroe St #4,Chicago,IL,60603,"https://www.zillow.com/homes/60-E-Monroe-St-#4,Chicago-IL-60603_rb"
7377 N Rogers Ave #108,Chicago,IL,60626,"https://www.zillow.com/homes/7377-N-Rogers-Ave-#108,Chicago-IL-60626_rb"
2431 N Clark St,Chicago,IL,60614,"https://www.zillow.com/homes/2431-N-Clark-St,Chicago-IL-60614_rb"
5450 W 127th St #G-4,Alsip,IL,60803,"https://www.zillow.com/homes/5450-W-127th-St-#G-4,Alsip-IL-60803_rb"
4960 S Chicago Beach Dr,Chicago,IL,60615,"https://www.zillow.com/homes/4960-S-Chicago-Beach-Dr,Chicago-IL-60615_rb"
6049 S Eberhart Ave #G3,Chicago,IL,60637,"https://www.zillow.com/homes/6049-S-Eberhart-Ave-#G3,Chicago-IL-60637_rb"
2345 185th Ct #4-7,Lansing,IL,60438,"https://www.zillow.com/homes/2345-185th-Ct-#4-7,Lansing-IL-60438_rb"
475 162nd St,Calumet City,IL,60409,"https://www.zillow.com/homes/475-162nd-St,Calumet-City-IL-60409_rb"
873 N Larrabee St #Pk-78,Chicago,IL,60610,"https://www.zillow.com/homes/873-N-Larrabee-St-#Pk-78,Chicago-IL-60610_rb"
820 Elder Rd #C106,Homewood,IL,60430,"https://www.zillow.com/homes/820-Elder-Rd-#C106,Homewood-IL-60430_rb"
6920 S South Shore Dr #G6,Chicago,IL,60649,"https://www.zillow.com/homes/6920-S-South-Shore-Dr-#G6,Chicago-IL-60649_rb"
3300 Grove Ave #2n,Berwyn,IL,60402,"https://www.zillow.com/homes/3300-Grove-Ave-#2n,Berwyn-IL-60402_rb"
6037 N Rockwell St #2e,Chicago,IL,60659,"https://www.zillow.com/homes/6037-N-Rockwell-St-#2e,Chicago-IL-60659_rb"
4233 W 76th St #G33,Chicago,IL,60652,"https://www.zillow.com/homes/4233-W-76th-St-#G33,Chicago-IL-60652_rb"
4011 N Francisco Ave #G8,Chicago,IL,60618,"https://www.zillow.com/homes/4011-N-Francisco-Ave-#G8,Chicago-IL-60618_rb"
1814 W 79th St #405,Chicago,IL,60620,"https://www.zillow.com/homes/1814-W-79th-St-#405,Chicago-IL-60620_rb"
3634 Western Ave,Park Forest,IL,60466,"https://www.zillow.com/homes/3634-Western-Ave,Park-Forest-IL-60466_rb"
7148 W Addison St #D,Chicago,IL,60634,"https://www.zillow.com/homes/7148-W-Addison-St-#D,Chicago-IL-60634_rb"
3504 Western Ave,Park Forest,IL,60466,"https://www.zillow.com/homes/3504-Western-Ave,Park-Forest-IL-60466_rb"
1814 W 79th St #210,Chicago,IL,60620,"https://www.zillow.com/homes/1814-W-79th-St-#210,Chicago-IL-60620_rb"
6421 35 W #R-B,Chicago,IL,60646,"https://www.zillow.com/homes/6421-35-W-#R-B,Chicago-IL-60646_rb"
19149 Pine Dr,Country Club Hills,IL,60478,"https://www.zillow.com/homes/19149-Pine-Dr,Country-Club-Hills-IL-60478_rb"
7337 S South Shore Dr #223,Chicago,IL,60649,"https://www.zillow.com/homes/7337-S-South-Shore-Dr-#223,Chicago-IL-60649_rb"
8232 Niles Center Rd #G12,Skokie,IL,60077,"https://www.zillow.com/homes/8232-Niles-Center-Rd-#G12,Skokie-IL-60077_rb"
2210 E 70th Pl #G2,Chicago,IL,60649,"https://www.zillow.com/homes/2210-E-70th-Pl-#G2,Chicago-IL-60649_rb"
400 Park,,IL,,"https://www.zillow.com/homes/400-Park,-IL-_rb"
1645 W Lunt Ave #G-1,Chicago,IL,60626,"https://www.zillow.com/homes/1645-W-Lunt-Ave-#G-1,Chicago-IL-60626_rb"
14 Mcgarity Rd,Park Forest,IL,60466,"https://www.zillow.com/homes/14-Mcgarity-Rd,Park-Forest-IL-60466_rb"
2301 E 70th Pl #318,Chicago,IL,60649,"https://www.zillow.com/homes/2301-E-70th-Pl-#318,Chicago-IL-60649_rb"
1212 N La Salle Dr #203,Chicago,IL,60610,"https://www.zillow.com/homes/1212-N-La-Salle-Dr-#203,Chicago-IL-60610_rb"
7217 S Yates Blvd #4a,Chicago,IL,60649,"https://www.zillow.com/homes/7217-S-Yates-Blvd-#4a,Chicago-IL-60649_rb"
1122 N Clark St #426,Chicago,IL,60610,"https://www.zillow.com/homes/1122-N-Clark-St-#426,Chicago-IL-60610_rb"
5320 N Sheridan Rd #F40,Chicago,IL,60640,"https://www.zillow.com/homes/5320-N-Sheridan-Rd-#F40,Chicago-IL-60640_rb"
1381 River Dr #10,Calumet City,IL,60409,"https://www.zillow.com/homes/1381-River-Dr-#10,Calumet-City-IL-60409_rb"
7854 S South Shore Dr #406,Chicago,IL,60649,"https://www.zillow.com/homes/7854-S-South-Shore-Dr-#406,Chicago-IL-60649_rb"
22518 Jackson Ct #6a,Richton Park,IL,60471,"https://www.zillow.com/homes/22518-Jackson-Ct-#6a,Richton-Park-IL-60471_rb"
2304 Holiday Ter #304,Lansing,IL,60438,"https://www.zillow.com/homes/2304-Holiday-Ter-#304,Lansing-IL-60438_rb"
1381 River Dr #1002,Calumet City,IL,60409,"https://www.zillow.com/homes/1381-River-Dr-#1002,Calumet-City-IL-60409_rb"
4044 N California Ave #Pu-5,Chicago,IL,60618,"https://www.zillow.com/homes/4044-N-California-Ave-#Pu-5,Chicago-IL-60618_rb"
847 W Monroe St #S1,Chicago,IL,60607,"https://www.zillow.com/homes/847-W-Monroe-St-#S1,Chicago-IL-60607_rb"
7337 S South Shore Dr #814,Chicago,IL,60649,"https://www.zillow.com/homes/7337-S-South-Shore-Dr-#814,Chicago-IL-60649_rb"
3438 Western Ave,Park Forest,IL,60466,"https://www.zillow.com/homes/3438-Western-Ave,Park-Forest-IL-60466_rb"
7854 S South Shore Dr #210,Chicago,IL,60649,"https://www.zillow.com/homes/7854-S-South-Shore-Dr-#210,Chicago-IL-60649_rb"
1340 N Dearborn St #G13,Chicago,IL,60610,"https://www.zillow.com/homes/1340-N-Dearborn-St-#G13,Chicago-IL-60610_rb"
1322 S Wabash Ave #G6,Chicago,IL,60605,"https://www.zillow.com/homes/1322-S-Wabash-Ave-#G6,Chicago-IL-60605_rb"
1530 S State St #R21,Chicago,IL,60605,"https://www.zillow.com/homes/1530-S-State-St-#R21,Chicago-IL-60605_rb"
815 E Glenwood Lansing Rd #507,Glenwood,IL,60425,"https://www.zillow.com/homes/815-E-Glenwood-Lansing-Rd-#507,Glenwood-IL-60425_rb"
28 Dunlap Rd,Park Forest,IL,60466,"https://www.zillow.com/homes/28-Dunlap-Rd,Park-Forest-IL-60466_rb"
1951 Bernice Rd,Lansing,IL,60438,"https://www.zillow.com/homes/1951-Bernice-Rd,Lansing-IL-60438_rb"
1951 Bernice Rd,Lansing,IL,60438,"https://www.zillow.com/homes/1951-Bernice-Rd,Lansing-IL-60438_rb"
15631 Lexington Ave,Harvey,IL,60426,"https://www.zillow.com/homes/15631-Lexington-Ave,Harvey-IL-60426_rb"
1616 W Marquette Rd #22,Chicago,IL,60636,"https://www.zillow.com/homes/1616-W-Marquette-Rd-#22,Chicago-IL-60636_rb"
13605 S Halsted St,Riverdale,IL,60827,"https://www.zillow.com/homes/13605-S-Halsted-St,Riverdale-IL-60827_rb"
27 W 168th St,South Holland,IL,60473,"https://www.zillow.com/homes/27-W-168th-St,South-Holland-IL-60473_rb"
1404 Wentworth Ave,Calumet City,IL,60409,"https://www.zillow.com/homes/1404-Wentworth-Ave,Calumet-City-IL-60409_rb"
109 Webb St,Calumet City,IL,60409,"https://www.zillow.com/homes/109-Webb-St,Calumet-City-IL-60409_rb"
1133 W 111th Pl #1,Chicago,IL,60643,"https://www.zillow.com/homes/1133-W-111th-Pl-#1,Chicago-IL-60643_rb"
2126 E 97th St,Chicago,IL,60617,"https://www.zillow.com/homes/2126-E-97th-St,Chicago-IL-60617_rb"
1121 E 82nd Pl,Chicago,IL,60619,"https://www.zillow.com/homes/1121-E-82nd-Pl,Chicago-IL-60619_rb"
9217 S Prairie Ave,Chicago,IL,60619,"https://www.zillow.com/homes/9217-S-Prairie-Ave,Chicago-IL-60619_rb"
8519 S Saint Lawrence Ave,Chicago,IL,60619,"https://www.zillow.com/homes/8519-S-Saint-Lawrence-Ave,Chicago-IL-60619_rb"
2844 W Walnut St,Chicago,IL,60612,"https://www.zillow.com/homes/2844-W-Walnut-St,Chicago-IL-60612_rb"
346 Geneva Ave,Bellwood,IL,60104,"https://www.zillow.com/homes/346-Geneva-Ave,Bellwood-IL-60104_rb"
2650 E 77th St,Chicago,IL,60649,"https://www.zillow.com/homes/2650-E-77th-St,Chicago-IL-60649_rb"
9552 S Euclid Ave,Chicago,IL,60617,"https://www.zillow.com/homes/9552-S-Euclid-Ave,Chicago-IL-60617_rb"
9534 S Chappel Ave,Chicago,IL,60617,"https://www.zillow.com/homes/9534-S-Chappel-Ave,Chicago-IL-60617_rb"
9755 S Luella Ave,Chicago,IL,60617,"https://www.zillow.com/homes/9755-S-Luella-Ave,Chicago-IL-60617_rb"
1120 W 112th St,Chicago,IL,60643,"https://www.zillow.com/homes/1120-W-112th-St,Chicago-IL-60643_rb"
902 E 83rd St,Chicago,IL,60619,"https://www.zillow.com/homes/902-E-83rd-St,Chicago-IL-60619_rb"
8830 S Wabash Ave,Chicago,IL,60619,"https://www.zillow.com/homes/8830-S-Wabash-Ave,Chicago-IL-60619_rb"
8323 S Ingleside Ave,Chicago,IL,60619,"https://www.zillow.com/homes/8323-S-Ingleside-Ave,Chicago-IL-60619_rb"
8633 S Saint Lawrence Ave,Chicago,IL,60619,"https://www.zillow.com/homes/8633-S-Saint-Lawrence-Ave,Chicago-IL-60619_rb"
9146 S Urban Ave,Chicago,IL,60619,"https://www.zillow.com/homes/9146-S-Urban-Ave,Chicago-IL-60619_rb"
9115 S Williams Ave,Chicago,IL,60619,"https://www.zillow.com/homes/9115-S-Williams-Ave,Chicago-IL-60619_rb"
9161 S Forest Ave,Chicago,IL,60619,"https://www.zillow.com/homes/9161-S-Forest-Ave,Chicago-IL-60619_rb"
9148 S Burnside Ave,Chicago,IL,60619,"https://www.zillow.com/homes/9148-S-Burnside-Ave,Chicago-IL-60619_rb"
5212 S Calumet Ave,Chicago,IL,60615,"https://www.zillow.com/homes/5212-S-Calumet-Ave,Chicago-IL-60615_rb"
2844 W Fulton St,Chicago,IL,60612,"https://www.zillow.com/homes/2844-W-Fulton-St,Chicago-IL-60612_rb"
324 W 104th Pl,Chicago,IL,60628,"https://www.zillow.com/homes/324-W-104th-Pl,Chicago-IL-60628_rb"
7117 S Ellis Ave,Chicago,IL,60619,"https://www.zillow.com/homes/7117-S-Ellis-Ave,Chicago-IL-60619_rb"
217 155th Pl,Calumet City,IL,60409,"https://www.zillow.com/homes/217-155th-Pl,Calumet-City-IL-60409_rb"
9314 S Clyde Ave,Chicago,IL,60617,"https://www.zillow.com/homes/9314-S-Clyde-Ave,Chicago-IL-60617_rb"
5422 S Kostner Ave,Chicago,IL,60632,"https://www.zillow.com/homes/5422-S-Kostner-Ave,Chicago-IL-60632_rb"
1019 Cottage Grove Ave,Ford Heights,IL,60411,"https://www.zillow.com/homes/1019-Cottage-Grove-Ave,Ford-Heights-IL-60411_rb"
7739 S Loomis Blvd,Chicago,IL,60620,"https://www.zillow.com/homes/7739-S-Loomis-Blvd,Chicago-IL-60620_rb"
13300 S Avenue N,Chicago,IL,60633,"https://www.zillow.com/homes/13300-S-Avenue-N,Chicago-IL-60633_rb"
4933 S Wabash Ave,Chicago,IL,60615,"https://www.zillow.com/homes/4933-S-Wabash-Ave,Chicago-IL-60615_rb"
1848 Euclid Ave,Chicago Heights,IL,60411,"https://www.zillow.com/homes/1848-Euclid-Ave,Chicago-Heights-IL-60411_rb"
4134 W Roscoe St,Chicago,IL,60641,"https://www.zillow.com/homes/4134-W-Roscoe-St,Chicago-IL-60641_rb"
515 Harrison Ave,Calumet City,IL,60409,"https://www.zillow.com/homes/515-Harrison-Ave,Calumet-City-IL-60409_rb"
3132 S 53rd Ct,Cicero,IL,60804,"https://www.zillow.com/homes/3132-S-53rd-Ct,Cicero-IL-60804_rb"
4909 W 29th St,Cicero,IL,60804,"https://www.zillow.com/homes/4909-W-29th-St,Cicero-IL-60804_rb"
14510 Jefferson St,Harvey,IL,60426,"https://www.zillow.com/homes/14510-Jefferson-St,Harvey-IL-60426_rb"
3445 196th St,Flossmoor,IL,60422,"https://www.zillow.com/homes/3445-196th-St,Flossmoor-IL-60422_rb"
8949 S Escanaba Ave,Chicago,IL,60617,"https://www.zillow.com/homes/8949-S-Escanaba-Ave,Chicago-IL-60617_rb"
524 Harrison Ave,Calumet City,IL,60409,"https://www.zillow.com/homes/524-Harrison-Ave,Calumet-City-IL-60409_rb"
524 Harrison Ave,Calumet City,IL,60409,"https://www.zillow.com/homes/524-Harrison-Ave,Calumet-City-IL-60409_rb"
663 Ingraham Ave,Calumet City,IL,60409,"https://www.zillow.com/homes/663-Ingraham-Ave,Calumet-City-IL-60409_rb"
513 E 151st St,Phoenix,IL,60426,"https://www.zillow.com/homes/513-E-151st-St,Phoenix-IL-60426_rb"
15228 Vine Ave,Harvey,IL,60426,"https://www.zillow.com/homes/15228-Vine-Ave,Harvey-IL-60426_rb"
7706 S Sangamon St,Chicago,IL,60620,"https://www.zillow.com/homes/7706-S-Sangamon-St,Chicago-IL-60620_rb"
707 Bradley Ave,Matteson,IL,60443,"https://www.zillow.com/homes/707-Bradley-Ave,Matteson-IL-60443_rb"
8018 S Manistee Ave,Chicago,IL,60617,"https://www.zillow.com/homes/8018-S-Manistee-Ave,Chicago-IL-60617_rb"
13445 S Burley Ave,Chicago,IL,60633,"https://www.zillow.com/homes/13445-S-Burley-Ave,Chicago-IL-60633_rb"
230 Arcadia St,Park Forest,IL,60466,"https://www.zillow.com/homes/230-Arcadia-St,Park-Forest-IL-60466_rb"
5237 Imperial Dr,Richton Park,IL,60471,"https://www.zillow.com/homes/5237-Imperial-Dr,Richton-Park-IL-60471_rb"
24 E 138th St,Riverdale,IL,60827,"https://www.zillow.com/homes/24-E-138th-St,Riverdale-IL-60827_rb"
9103 S Blackstone Ave,Chicago,IL,60619,"https://www.zillow.com/homes/9103-S-Blackstone-Ave,Chicago-IL-60619_rb"
1640 Butler St,Chicago Heights,IL,60411,"https://www.zillow.com/homes/1640-Butler-St,Chicago-Heights-IL-60411_rb"
1402 E 16th St,Ford Heights,IL,60411,"https://www.zillow.com/homes/1402-E-16th-St,Ford-Heights-IL-60411_rb"
17 E 31st Pl,Steger,IL,60475,"https://www.zillow.com/homes/17-E-31st-Pl,Steger-IL-60475_rb"
2475 E 74th St,Chicago,IL,60649,"https://www.zillow.com/homes/2475-E-74th-St,Chicago-IL-60649_rb"
1,1,1,1,"https://www.zillow.com/homes/Address,City-State-Zip_rb"